{
  "type": "FeatureCollection",
  "features": [
    {
      "type": "Feature",
      "id": "STAVBE.100200000326817356",
      "geometry": {
        "type": "Point",
        "coordinates": [14.51427786, 46.04806773]
      },
      "geometry_name": "CENTROID_GEOM",
      "properties": {
        "FEATUREID": 100200000326817356,
        "EID": "100200000326817356",
        "EID_STAVBA": "100200000326817356",
        "KO_ID": 1727,
        "NAZIV": "1727 POLJANSKO PREDMESTJE",
        "ST_STAVBE": 2143,
        "STEVILO_ETAZ": 4,
        "STEVILO_STANOVANJ": 1,
        "STEVILO_POSLOVNIH_PROSTOROV": 0,
        "BRUTO_TLORISNA_POVRSINA": null,
        "TIP_STAVBE_ID": 1,
        "TIPI_STAVB_SIFRA": 1,
        "TIPI_STAVB_NAZIV_SL": "samostoječa stavba",
        "TIPI_STAVB_OPIS_SL": null,
        "TIPI_STAVB_NAZIV_EN": null,
        "TIPI_STAVB_OPIS_EN": null,
        "TIPI_STAVB_NAZIV_IT": "indipendente",
        "TIPI_STAVB_OPIS_IT": "indipendente",
        "TIPI_STAVB_NAZIV_HU": "önállóan álló  épület",
        "TIPI_STAVB_OPIS_HU": "önállóan álló  épület",
        "ELEKTRIKA": 1,
        "ELEKTRIKA_SIFRA": 1,
        "ELEKTRIKA_NAZIV_SL": "Da",
        "ELEKTRIKA_OPIS_SL": "Da",
        "ELEKTRIKA_NAZIV_EN": null,
        "ELEKTRIKA_OPIS_EN": null,
        "ELEKTRIKA_NAZIV_IT": "Si",
        "ELEKTRIKA_OPIS_IT": "Si",
        "ELEKTRIKA_NAZIV_HU": "Igen",
        "ELEKTRIKA_OPIS_HU": "Igen",
        "PLIN": 0,
        "PLIN_SIFRA": 0,
        "PLIN_NAZIV_SL": "Ni podatka",
        "PLIN_OPIS_SL": "Ni podatka",
        "PLIN_NAZIV_EN": null,
        "PLIN_OPIS_EN": null,
        "PLIN_NAZIV_IT": "Manca il dato",
        "PLIN_OPIS_IT": "Manca il dato",
        "PLIN_NAZIV_HU": "Nincs adat",
        "PLIN_OPIS_HU": "Nincs adat",
        "VODOVOD": 1,
        "VODOVOD_SIFRA": 1,
        "VODOVOD_NAZIV_SL": "Da",
        "VODOVOD_OPIS_SL": "Da",
        "VODOVOD_NAZIV_EN": null,
        "VODOVOD_OPIS_EN": null,
        "VODOVOD_NAZIV_IT": "Si",
        "VODOVOD_OPIS_IT": "Si",
        "VODOVOD_NAZIV_HU": "Igen",
        "VODOVOD_OPIS_HU": "Igen",
        "KANALIZACIJA": 1,
        "KANALIZACIJA_SIFRA": 1,
        "KANALIZACIJA_NAZIV_SL": "Da",
        "KANALIZACIJA_OPIS_SL": "Da",
        "KANALIZACIJA_NAZIV_EN": null,
        "KANALIZACIJA_OPIS_EN": null,
        "KANALIZACIJA_NAZIV_IT": "Si",
        "KANALIZACIJA_OPIS_IT": "Si",
        "KANALIZACIJA_NAZIV_HU": "Igen",
        "KANALIZACIJA_OPIS_HU": "Igen",
        "LETO_IZGRADNJE": 2015,
        "LETO_OBNOVE_FASADE": null,
        "LETO_OBNOVE_STREHE": null,
        "VISINA_H1": 291.7,
        "VISINA_H2": 308.6,
        "VISINA_H3": 294.6,
        "POLOZAJNA_NATANCNOST_STAVBE_ID": 1,
        "POLOZAJNE_NATANCNOSTI_STAVBE_SIFRA": "1",
        "POLOZAJNE_NATANCNOSTI_STAVBE_NAZIV_SL": "Točnost koordinat (standardni odklon) do ±0,25 m",
        "POLOZAJNE_NATANCNOSTI_STAVBE_OPIS_SL": "koordinate določene z izmero v D96 (GNSS ali kombinirana metoda)",
        "POLOZAJNE_NATANCNOSTI_STAVBE_NAZIV_EN": null,
        "POLOZAJNE_NATANCNOSTI_STAVBE_OPIS_EN": null,
        "POLOZAJNE_NATANCNOSTI_STAVBE_NAZIV_IT": null,
        "POLOZAJNE_NATANCNOSTI_STAVBE_OPIS_IT": null,
        "POLOZAJNE_NATANCNOSTI_STAVBE_NAZIV_HU": null,
        "POLOZAJNE_NATANCNOSTI_STAVBE_OPIS_HU": null,
        "VISINSKA_NATANCNOST_STAVBE_ID": 0,
        "VISINSKE_NATANCNOSTI_STAVBE_SIFRA": "0",
        "VISINSKE_NATANCNOSTI_STAVBE_NAZIV_SL": "Točnost višine ni določena",
        "VISINSKE_NATANCNOSTI_STAVBE_OPIS_SL": "neznana metoda določitve",
        "VISINSKE_NATANCNOSTI_STAVBE_NAZIV_EN": null,
        "VISINSKE_NATANCNOSTI_STAVBE_OPIS_EN": null,
        "VISINSKE_NATANCNOSTI_STAVBE_NAZIV_IT": null,
        "VISINSKE_NATANCNOSTI_STAVBE_OPIS_IT": null,
        "VISINSKE_NATANCNOSTI_STAVBE_NAZIV_HU": null,
        "VISINSKE_NATANCNOSTI_STAVBE_OPIS_HU": null,
        "NOSILNA_KONSTRUKCIJA_ID": 2,
        "NOSILNE_KONSTRUKCIJE_SIFRA": 2,
        "NOSILNE_KONSTRUKCIJE_NAZIV_SL": "beton, železobeton",
        "NOSILNE_KONSTRUKCIJE_OPIS_SL": null,
        "NOSILNE_KONSTRUKCIJE_NAZIV_EN": null,
        "NOSILNE_KONSTRUKCIJE_OPIS_EN": null,
        "NOSILNE_KONSTRUKCIJE_NAZIV_IT": "calcestruzzo, cemento armato",
        "NOSILNE_KONSTRUKCIJE_OPIS_IT": "calcestruzzo, cemento armato",
        "NOSILNE_KONSTRUKCIJE_NAZIV_HU": "beton, vasbeton",
        "NOSILNE_KONSTRUKCIJE_OPIS_HU": "beton, vasbeton",
        "TLORIS_GEOM": {
          "type": "Polygon",
          "coordinates": [
            [
              [14.51414203, 46.04804079],
              [14.51439912, 46.04798709],
              [14.51444548, 46.04809417],
              [14.51418838, 46.04814788],
              [14.51414203, 46.04804079]
            ]
          ]
        },
        "NADZEMNI_GEOM": null,
        "PODZEMNI_GEOM": null,
        "TEREN_GEOM": {
          "type": "Polygon",
          "coordinates": [
            [
              [14.514194, 46.04814052],
              [14.51415246, 46.04804497],
              [14.51435894, 46.04800158],
              [14.51439402, 46.04799426],
              [14.51443531, 46.04808972],
              [14.51438172, 46.04810101],
              [14.514194, 46.04814052]
            ]
          ]
        },
        "OBRIS_GEOM": {
          "type": "Polygon",
          "coordinates": [
            [
              [14.51414203, 46.04804079],
              [14.51439912, 46.04798709],
              [14.51444548, 46.04809417],
              [14.51418838, 46.04814788],
              [14.51414203, 46.04804079]
            ]
          ]
        },
        "DATUM_SYS": "2025-07-17T15:03:09Z",
        "VISINSKI_DATUM_STAVBE_ID": 1,
        "VISINSKI_DATUMI_STAVBE_SIFRA": "1",
        "VISINSKI_DATUMI_STAVBE_NAZIV_SL": "Trst 1875 ",
        "VISINSKI_DATUMI_STAVBE_OPIS_SL": "SVS2000 – Slovenski višinski sistem 2000",
        "VISINSKI_DATUMI_STAVBE_NAZIV_EN": null,
        "VISINSKI_DATUMI_STAVBE_OPIS_EN": null,
        "VISINSKI_DATUMI_STAVBE_NAZIV_IT": null,
        "VISINSKI_DATUMI_STAVBE_OPIS_IT": null,
        "VISINSKI_DATUMI_STAVBE_NAZIV_HU": null,
        "VISINSKI_DATUMI_STAVBE_OPIS_HU": null,
        "STATUS_VPISA_ID": 1,
        "STATUSI_VPISA_STAVBE_SIFRA": 1,
        "STATUSI_VPISA_STAVBE_NAZIV_SL": "Katastrski vpis po ZEN",
        "STATUSI_VPISA_STAVBE_OPIS_SL": null,
        "STATUSI_VPISA_STAVBE_NAZIV_EN": null,
        "STATUSI_VPISA_STAVBE_OPIS_EN": null,
        "STATUSI_VPISA_STAVBE_NAZIV_IT": "Iscrizione al catasto ai sensi della legge ZEN",
        "STATUSI_VPISA_STAVBE_OPIS_IT": "Iscrizione al catasto ai sensi della legge ZEN",
        "STATUSI_VPISA_STAVBE_NAZIV_HU": "A ZEN szerinti telekkönyvi bejegyzés",
        "STATUSI_VPISA_STAVBE_OPIS_HU": "A ZEN szerinti telekkönyvi bejegyzés",
        "E_CEN": 462410.73,
        "N_CEN": 101033.3,
        "STEVILKA_PRITL_ETAZE": 2,
        "RPE_OBCINE_SIFRA": 61,
        "RPE_OBCINE_NAZIV": "Ljubljana"
      },
      "bbox": [14.51414203, 46.04798709, 14.51444548, 46.04814788]
    }
  ],
  "totalFeatures": 1,
  "numberMatched": 1,
  "numberReturned": 1,
  "timeStamp": "2026-07-30T13:06:50.389Z",
  "crs": {
    "type": "name",
    "properties": { "name": "urn:ogc:def:crs:EPSG::4326" }
  },
  "bbox": [14.51427786, 46.04806773, 14.51427786, 46.04806773]
}
